ORBCOMM FM37            
1 33064U 08031E   25215.22034972  .00001457  00000+0  21889-3 0  9999
2 33064  48.4401 120.0159 0005392 220.6166 274.0560 14.79895802921019
ORBCOMM FM40            
1 33065U 08031F   25215.19625944  .00001919  00000+0  26507-3 0  9996
2 33065  48.4410 103.3738 0006604 232.5551 268.3508 14.82190547921571
ORBCOMM FM109           
1 40086U 14040A   25215.46242738  .00000574  00000+0  15958-3 0  9994
2 40086  47.0028 153.0113 0001755 227.7833 132.2904 14.58229437587966
ORBCOMM FM106           
1 40088U 14040C   25215.55369478  .00000872  00000+0  17678-3 0  9999
2 40088  47.0621 331.8342 0017617 285.0732  74.8210 14.69529632590446
ORBCOMM FM111           
1 40089U 14040D   25215.47193278  .00002495  00000+0  30125-3 0  9999
2 40089  46.9997 175.9962 0029675  57.5234 302.8526 14.86499870597262
ORBCOMM FM104           
1 40090U 14040E   25215.39198969  .00000544  00000+0  15834-3 0  9997
2 40090  47.0036 188.4679 0015694  57.8938 302.3469 14.56696624587504
